{
  "data": [
    {
      "areaType": 1,
      "areaCode": "01",
      "areaName": "北京",
      "parentCode": ""
    },
    {
      "areaType": 1,
      "areaCode": "02",
      "areaName": "天津",
      "parentCode": ""
    },
    {
      "areaType": 1,
      "areaCode": "03",
      "areaName": "河北",
      "parentCode": ""
    },
    {
      "areaType": 1,
      "areaCode": "04",
      "areaName": "山西",
      "parentCode": ""
    },
    {
      "areaType": 1,
      "areaCode": "05",
      "areaName": "内蒙古",
      "parentCode": ""
    },
    {
      "areaType": 1,
      "areaCode": "06",
      "areaName": "辽宁",
      "parentCode": ""
    },
    {
      "areaType": 1,
      "areaCode": "07",
      "areaName": "吉林",
      "parentCode": ""
    },
    {
      "areaType": 1,
      "areaCode": "08",
      "areaName": "黑龙江",
      "parentCode": ""
    },
    {
      "areaType": 1,
      "areaCode": "09",
      "areaName": "上海",
      "parentCode": ""
    },
    {
      "areaType": 1,
      "areaCode": "10",
      "areaName": "江苏",
      "parentCode": ""
    },
    {
      "areaType": 1,
      "areaCode": "11",
      "areaName": "浙江",
      "parentCode": ""
    },
    {
      "areaType": 1,
      "areaCode": "12",
      "areaName": "安徽",
      "parentCode": ""
    },
    {
      "areaType": 1,
      "areaCode": "13",
      "areaName": "福建",
      "parentCode": ""
    },
    {
      "areaType": 1,
      "areaCode": "14",
      "areaName": "江西",
      "parentCode": ""
    },
    {
      "areaType": 1,
      "areaCode": "15",
      "areaName": "山东",
      "parentCode": ""
    },
    {
      "areaType": 1,
      "areaCode": "16",
      "areaName": "河南",
      "parentCode": ""
    },
    {
      "areaType": 1,
      "areaCode": "17",
      "areaName": "湖北",
      "parentCode": ""
    },
    {
      "areaType": 1,
      "areaCode": "18",
      "areaName": "湖南",
      "parentCode": ""
    },
    {
      "areaType": 1,
      "areaCode": "19",
      "areaName": "广东",
      "parentCode": ""
    },
    {
      "areaType": 1,
      "areaCode": "20",
      "areaName": "广西",
      "parentCode": ""
    },
    {
      "areaType": 1,
      "areaCode": "21",
      "areaName": "海南",
      "parentCode": ""
    },
    {
      "areaType": 1,
      "areaCode": "22",
      "areaName": "四川",
      "parentCode": ""
    },
    {
      "areaType": 1,
      "areaCode": "23",
      "areaName": "贵州",
      "parentCode": ""
    },
    {
      "areaType": 1,
      "areaCode": "24",
      "areaName": "云南",
      "parentCode": ""
    },
    {
      "areaType": 1,
      "areaCode": "25",
      "areaName": "西藏",
      "parentCode": ""
    },
    {
      "areaType": 1,
      "areaCode": "26",
      "areaName": "陕西",
      "parentCode": ""
    },
    {
      "areaType": 1,
      "areaCode": "27",
      "areaName": "甘肃",
      "parentCode": ""
    },
    {
      "areaType": 1,
      "areaCode": "28",
      "areaName": "青海",
      "parentCode": ""
    },
    {
      "areaType": 1,
      "areaCode": "29",
      "areaName": "宁夏",
      "parentCode": ""
    },
    {
      "areaType": 1,
      "areaCode": "30",
      "areaName": "新疆",
      "parentCode": ""
    },
    {
      "areaType": 1,
      "areaCode": "31",
      "areaName": "重庆",
      "parentCode": ""
    }
  ]
}
